BEIDOU 3 (C01)          
1 36287U 10001A   22106.53575434 -.00000275  00000+0  00000+0 0  9998
2 36287   1.9774  49.4269 0003552  13.5854 114.9339  1.00270928 44895
BEIDOU 5 (C06)          
1 36828U 10036A   22105.91175542 -.00000098  00000+0  00000+0 0  9997
2 36828  54.1899 176.8017 0027817 187.2492 276.3586  1.00264200 42955
BEIDOU 6 (C04)          
1 37210U 10057A   22106.61145969 -.00000108  00000+0  00000+0 0  9996
2 37210   0.7554  39.7162 0002019 196.3586 348.7463  1.00271377 42014
BEIDOU 7 (C07)          
1 37256U 10068A   22106.30204981 -.00000193  00000+0  00000+0 0  9998
2 37256  50.3229 290.3863 0018949 181.7293 309.5761  1.00269278 41527
BEIDOU 8 (C08)          
1 37384U 11013A   22106.31032296 -.00000186  00000+0  00000+0 0  9992
2 37384  60.2073  54.8709 0018278 194.2443 175.7579  1.00272276 40407
BEIDOU 9 (C09)          
1 37763U 11038A   22105.89968263 -.00000048  00000+0  00000+0 0  9991
2 37763  54.4724 179.2858 0095648 227.1233 214.2688  1.00291775 39371
BEIDOU 10 (C10)         
1 37948U 11073A   22106.30422921 -.00000144  00000+0  00000+0 0  9995
2 37948  50.4376 290.0204 0077587 217.2663 262.0829  1.00266817 38131
BEIDOU 11 (C05)         
1 38091U 12008A   22106.60697701  .00000062  00000+0  00000+0 0  9995
2 38091   1.4271  65.6749 0014986 323.3243  92.9331  1.00274181 37217
BEIDOU 12 (C11)         
1 38250U 12018A   22106.62263065 -.00000070  00000+0  00000+0 0  9997
2 38250  56.7100 355.6018 0021369 257.7988 257.9629  1.86234435 67935
BEIDOU 13 (C12)         
1 38251U 12018B   22106.54037598 -.00000070  00000+0  00000+0 0  9999
2 38251  56.6278 354.9338 0012253 264.2829 240.5763  1.86234271 67932
BEIDOU 15 (C14)         
1 38775U 12050B   22106.25329431  .00000077  00000+0  00000+0 0  9990
2 38775  55.3633 113.7769 0015340 318.9172 189.9846  1.86231349 65301
BEIDOU 16 (C02)         
1 38953U 12059A   22106.51993939 -.00000168  00000+0  00000+0 0  9998
2 38953   1.8350  84.4589 0013354 295.6204  95.6744  1.00267632 34648
BEIDOU 17 (C31)         
1 40549U 15019A   22106.30631718 -.00000139  00000+0  00000+0 0  9990
2 40549  51.9896 313.4754 0035776 188.0910 266.0718  1.00255896 25816
BEIDOU 18 (C57)         
1 40748U 15037A   22106.15300288 -.00000070  00000+0  00000+0 0  9993
2 40748  55.8826 353.8504 0005657  15.5079 139.1453  1.86233318 45759
BEIDOU 19 (C58)         
1 40749U 15037B   22106.52966419 -.00000070  00000+0  00000+0 0  9999
2 40749  55.8852 353.8270 0006136 341.3768 200.5942  1.86232250 45757
BEIDOU 20 (C18)         
1 40938U 15053A   22106.30810653 -.00000130  00000+0  00000+0 0  9998
2 40938  51.5991 276.5824 0044790 192.8261 300.5990  1.00260279 24080
BEIDOU IGSO-6 (C13)     
1 41434U 16021A   22106.31255328 -.00000147  00000+0  00000+0 0  9997
2 41434  58.0142  53.4800 0044740 220.4088 135.9971  1.00294883 22207
BEIDOU-2 G7 (C03)       
1 41586U 16037A   22106.52982351 -.00000349  00000+0  00000+0 0  9992
2 41586   1.8402  68.8365 0009016 358.7327  78.3165  1.00276085 21516
BEIDOU-3 M1 (C19)       
1 43001U 17069A   22106.33174260  .00000077  00000+0  00000+0 0  9990
2 43001  55.5175 113.7667 0012372 290.0419  67.6673  1.86231702 30232
BEIDOU-3 M2 (C20)       
1 43002U 17069B   22105.96567090  .00000080  00000+0  00000+0 0  9990
2 43002  55.5166 113.8150 0010389 306.8540 208.5349  1.86231419 30228
BEIDOU-3 M3 (C27)       
1 43107U 18003A   22106.21060473 -.00000072  00000+0  00000+0 0  9999
2 43107  55.3320 354.7935 0005651  45.2618  80.3922  1.86232458 28995
BEIDOU-3 M4 (C28)       
1 43108U 18003B   22106.14635637 -.00000072  00000+0  00000+0 0  9992
2 43108  55.3255 354.7846 0002499 278.2077 208.6130  1.86230923 28999
BEIDOU-3 M5 (C21)       
1 43207U 18018A   22105.86594093  .00000080  00000+0  00000+0 0  9994
2 43207  55.4764 113.8985 0007325 322.0066  37.9859  1.86231662 28376
BEIDOU-3 M6 (C22)       
1 43208U 18018B   22105.93256565  .00000080  00000+0  00000+0 0  9992
2 43208  55.4753 113.9011 0010303 298.7689  61.1710  1.86231779 28370
BEIDOU-3 M7 (C29)       
1 43245U 18029A   22106.41098948 -.00000070  00000+0  00000+0 0  9998
2 43245  55.2485 352.5596 0001452  12.1712 158.2111  1.86232573 27533
BEIDOU-3 M8 (C30)       
1 43246U 18029B   22106.28348063 -.00000070  00000+0  10000-3 0  9995
2 43246  55.2456 352.5934 0005254   2.7020 128.6710  1.86232761 27523
BEIDOU IGSO-7 (C16)     
1 43539U 18057A   22106.60212734 -.00000095  00000+0  00000+0 0  9994
2 43539  55.0722 176.2520 0047585 225.7542 131.0778  1.00276943 13885
BEIDOU-3 M9 (C23)       
1 43581U 18062A   22106.04518500  .00000004  00000+0  00000+0 0  9994
2 43581  54.2946 234.2196 0002109 287.1599 255.2903  1.86231816 25260
BEIDOU-3 M10 (C24)      
1 43582U 18062B   22106.44687907  .00000007  00000+0  00000+0 0  9990
2 43582  54.2965 234.1956 0005348  21.5848 161.9166  1.86232083 25272
BEIDOU-3 M11 (C25)      
1 43602U 18067A   22106.13333065  .00000005  00000+0  00000+0 0  9995
2 43602  54.3775 232.8153 0007228  14.1749   0.6194  1.86231665 24764
BEIDOU-3 M12 (C26)      
1 43603U 18067B   22106.26594779  .00000006  00000+0  00000+0 0  9992
2 43603  54.3757 232.7781 0004261   7.9062   6.1897  1.86231609 24784
BEIDOU-3 M13 (C32)      
1 43622U 18072A   22105.92413272  .00000079  00000+0  00000+0 0  9999
2 43622  55.4424 113.4538 0008936 285.9734 248.4105  1.86231606 24285
BEIDOU-3 M14 (C33)      
1 43623U 18072B   22106.25861373  .00000077  00000+0  00000+0 0  9994
2 43623  55.4448 113.4345 0006792 303.8001 185.0734  1.86231625 24299
BEIDOU-3 M15 (C34)      
1 43647U 18078A   22106.48799281 -.00000070  00000+0  10000-3 0  9998
2 43647  55.1430 352.7207 0007637   5.9888 172.1563  1.86233036 23801
BEIDOU-3 M16 (C35)      
1 43648U 18078B   22106.54843384 -.00000071  00000+0  00000+0 0  9996
2 43648  55.1391 352.7248 0005675  14.0409 112.5306  1.86232245 23829
BEIDOU-3 G1 (C59)       
1 43683U 18085A   22106.50466140 -.00000273  00000+0  00000+0 0  9994
2 43683   0.8461 177.0061 0002581 323.9667  25.3815  1.00273716 12788
BEIDOU-3 M17 (C36)      
1 43706U 18093A   22105.97438909  .00000003  00000+0  00000+0 0  9991
2 43706  54.3779 234.1038 0008249 275.3069  84.5637  1.86231738 23178
BEIDOU-3 M18 (C37)      
1 43707U 18093B   22106.36577435  .00000006  00000+0  00000+0 0  9997
2 43707  54.3786 234.0799 0006627 310.8388  42.5974  1.86232128 23168
BEIDOU-3 IGSO-1 (C38)   
1 44204U 19023A   22106.54203222 -.00000216  00000+0  00000+0 0  9998
2 44204  56.4726  53.6351 0019827 205.1500 260.3592  1.00276742 11096
BEIDOU-2 G8             
1 44231U 19027A   22105.89076543 -.00000242  00000+0  00000+0 0  9992
2 44231   0.7132  72.9752 0004147 138.2033  98.0953  1.00273126 10790
BEIDOU-3 IGSO-2 (C39)   
1 44337U 19035A   22105.91605318 -.00000099  00000+0  00000+0 0  9999
2 44337  55.1114 172.2820 0023086 194.7870 285.9465  1.00272143 10423
BEIDOU-3 M23 (C45)      
1 44542U 19061A   22105.91000264  .00000003  00000+0  00000+0 0  9999
2 44542  54.6038 234.2354 0007474 344.6034  15.3380  1.86231144 17420
BEIDOU-3 M24 (C46)      
1 44543U 19061B   22106.32941322  .00000006  00000+0  00000+0 0  9998
2 44543  54.6030 234.1896 0004723 342.7481 209.6109  1.86231601 17427
BEIDOU-3 IGSO-3         
1 44709U 19073A   22106.42340920 -.00000165  00000+0  00000+0 0  9990
2 44709  57.3658 297.0215 0021344 172.0709   7.4535  1.00275163  9183
BEIDOU-3 M21            
1 44793U 19078A   22106.03243563 -.00000070  00000+0  10000-3 0  9990
2 44793  54.9917 352.7664 0007561  10.7939 175.9042  1.86232170 16280
BEIDOU-3 M22            
1 44794U 19078B   22105.65686072 -.00000071  00000+0  00000+0 0  9990
2 44794  54.9661 352.7706 0005494   6.8233 199.6198  1.86232708 16271
BEIDOU-3 M19            
1 44864U 19090A   22106.26613993  .00000077  00000+0  00000+0 0  9997
2 44864  55.3770 113.6560 0018956 271.0320 178.4040  1.86231890 15874
BEIDOU-3 M20            
1 44865U 19090B   22106.19043839  .00000077  00000+0  00000+0 0  9996
2 44865  55.3794 113.6909 0017321 284.0457 204.5127  1.86231832 15848
BEIDOU-3 G2             
1 45344U 20017A   22106.52371824 -.00000140  00000+0  00000+0 0  9997
2 45344   2.1123 348.9944 0003668  85.3662  38.8500  1.00272723  7998
BEIDOU-3 G3             
1 45807U 20040A   22106.49077264 -.00000352  00000+0  00000+0 0  9999
2 45807   1.5851 301.8177 0006013 339.7219 210.2036  1.00277599  6805
